[
    {
        "Altitude(m)": 561284.3001163501,
        "Argument of Periapsis(deg)": 0.026491964442854003,
        "Eccentricity": 0.0,
        "Inclination(deg)": 53.0,
        "Latitude(deg)": -26.83628489992363,
        "Longitude(deg)": 34.53420894415541,
        "Mean Anomaly(deg)": -34.17902852968964,
        "RAAN(deg)": 159.96057347411204,
        "Satellite Name": "Starlink Shell 1 721",
        "Satellite Number": 721,
        "Semi-Major Axis(m)": 6931778.249405717,
        "Time(s)": 760
    },
    {
        "Altitude(m)": 561112.0705367344,
        "Argument of Periapsis(deg)": 0.02684054292236524,
        "Eccentricity": 0.0,
        "Inclination(deg)": 53.0,
        "Latitude(deg)": -26.370836448017503,
        "Longitude(deg)": 34.96265876048555,
        "Mean Anomaly(deg)": -33.55219732613289,
        "RAAN(deg)": 159.9600547040346,
        "Satellite Name": "Starlink Shell 1 721",
        "Satellite Number": 721,
        "Semi-Major Axis(m)": 6931778.249405717,
        "Time(s)": 770
    },
    {
        "Altitude(m)": 560940.5139520146,
        "Argument of Periapsis(deg)": 0.027189121401876473,
        "Eccentricity": 0.0,
        "Inclination(deg)": 53.0,
        "Latitude(deg)": -25.903815093798727,
        "Longitude(deg)": 35.38737127939211,
        "Mean Anomaly(deg)": -32.92536612257625,
        "RAAN(deg)": 159.95953593395714,
        "Satellite Name": "Starlink Shell 1 721",
        "Satellite Number": 721,
        "Semi-Major Axis(m)": 6931778.249405717,
        "Time(s)": 780
    },
    {
        "Altitude(m)": 560769.6930884047,
        "Argument of Periapsis(deg)": 0.02753769988138771,
        "Eccentricity": 0.0,
        "Inclination(deg)": 53.0,
        "Latitude(deg)": -25.43526376718125,
        "Longitude(deg)": 35.808440281407115,
        "Mean Anomaly(deg)": -32.29853491901957,
        "RAAN(deg)": 159.95901716387965,
        "Satellite Name": "Starlink Shell 1 721",
        "Satellite Number": 721,
        "Semi-Major Axis(m)": 6931778.249405717,
        "Time(s)": 790
    },
    {
        "Altitude(m)": 560599.6701962169,
        "Argument of Periapsis(deg)": 0.02788627836089895,
        "Eccentricity": 0.0,
        "Inclination(deg)": 53.0,
        "Latitude(deg)": -24.9652245100877,
        "Longitude(deg)": 36.225957769367945,
        "Mean Anomaly(deg)": -31.671703715462726,
        "RAAN(deg)": 159.95849839380216,
        "Satellite Name": "Starlink Shell 1 721",
        "Satellite Number": 721,
        "Semi-Major Axis(m)": 6931778.249405717,
        "Time(s)": 800
    },
    {
        "Altitude(m)": 560430.5070219741,
        "Argument of Periapsis(deg)": 0.02823485684041019,
        "Eccentricity": 0.0,
        "Inclination(deg)": 53.0,
        "Latitude(deg)": -24.493738503470997,
        "Longitude(deg)": 36.640014484539,
        "Mean Anomaly(deg)": -31.044872511906057,
        "RAAN(deg)": 159.9579796237247,
        "Satellite Name": "Starlink Shell 1 721",
        "Satellite Number": 721,
        "Semi-Major Axis(m)": 6931778.249405717,
        "Time(s)": 810
    },
    {
        "Altitude(m)": 560262.2647807118,
        "Argument of Periapsis(deg)": 0.028583435319921423,
        "Eccentricity": 0.0,
        "Inclination(deg)": 53.0,
        "Latitude(deg)": -24.020846093819593,
        "Longitude(deg)": 37.05070042447391,
        "Mean Anomaly(deg)": -30.41804130834939,
        "RAAN(deg)": 159.9574608536472,
        "Satellite Name": "Starlink Shell 1 721",
        "Satellite Number": 721,
        "Semi-Major Axis(m)": 6931778.249405717,
        "Time(s)": 820
    },
    {
        "Altitude(m)": 560095.0041285523,
        "Argument of Periapsis(deg)": 0.028932013799432665,
        "Eccentricity": 0.0,
        "Inclination(deg)": 53.0,
        "Latitude(deg)": -23.546586819148256,
        "Longitude(deg)": 37.45810384958591,
        "Mean Anomaly(deg)": -29.791210104792643,
        "RAAN(deg)": 159.95694208356977,
        "Satellite Name": "Starlink Shell 1 721",
        "Satellite Number": 721,
        "Semi-Major Axis(m)": 6931778.249405717,
        "Time(s)": 830
    },
    {
        "Altitude(m)": 559928.7851355285,
        "Argument of Periapsis(deg)": 0.029280592278943897,
        "Eccentricity": 0.0,
        "Inclination(deg)": 53.0,
        "Latitude(deg)": -23.070999434466806,
        "Longitude(deg)": 37.86231180402561,
        "Mean Anomaly(deg)": -29.164378901236,
        "RAAN(deg)": 159.95642331349228,
        "Satellite Name": "Starlink Shell 1 721",
        "Satellite Number": 721,
        "Semi-Major Axis(m)": 6931778.249405717,
        "Time(s)": 840
    },
    {
        "Altitude(m)": 559763.6672586949,
        "Argument of Periapsis(deg)": 0.029629170758455132,
        "Eccentricity": 0.0,
        "Inclination(deg)": 53.0,
        "Latitude(deg)": -22.594121936729632,
        "Longitude(deg)": 38.263410637855166,
        "Mean Anomaly(deg)": -28.537547697679226,
        "RAAN(deg)": 159.95590454341482,
        "Satellite Name": "Starlink Shell 1 721",
        "Satellite Number": 721,
        "Semi-Major Axis(m)": 6931778.249405717,
        "Time(s)": 850
    },
    {
        "Altitude(m)": 559599.7093154831,
        "Argument of Periapsis(deg)": 0.02997774923796637,
        "Eccentricity": 0.0,
        "Inclination(deg)": 53.0,
        "Latitude(deg)": -22.115991589272404,
        "Longitude(deg)": 38.66148484942219,
        "Mean Anomaly(deg)": -27.910716494122553,
        "RAAN(deg)": 159.95538577333733,
        "Satellite Name": "Starlink Shell 1 721",
        "Satellite Number": 721,
        "Semi-Major Axis(m)": 6931778.249405717,
        "Time(s)": 860
    },
    {
        "Altitude(m)": 559436.9694574339,
        "Argument of Periapsis(deg)": 0.030326327717477602,
        "Eccentricity": 0.0,
        "Inclination(deg)": 53.0,
        "Latitude(deg)": -21.636644945730428,
        "Longitude(deg)": 39.05661845023973,
        "Mean Anomaly(deg)": -27.28388529056581,
        "RAAN(deg)": 159.95486700325986,
        "Satellite Name": "Starlink Shell 1 721",
        "Satellite Number": 721,
        "Semi-Major Axis(m)": 6931778.249405717,
        "Time(s)": 870
    },
    {
        "Altitude(m)": 559275.5051441612,
        "Argument of Periapsis(deg)": 0.030674906196988847,
        "Eccentricity": 0.0,
        "Inclination(deg)": 53.0,
        "Latitude(deg)": -21.15611787345373,
        "Longitude(deg)": 39.448893809353066,
        "Mean Anomaly(deg)": -26.657054087009037,
        "RAAN(deg)": 159.95434823318237,
        "Satellite Name": "Starlink Shell 1 721",
        "Satellite Number": 721,
        "Semi-Major Axis(m)": 6931778.249405717,
        "Time(s)": 880
    },
    {
        "Altitude(m)": 559115.373117713,
        "Argument of Periapsis(deg)": 0.031023484676500086,
        "Eccentricity": 0.0,
        "Inclination(deg)": 53.0,
        "Latitude(deg)": -20.674445576416083,
        "Longitude(deg)": 39.83839217951774,
        "Mean Anomaly(deg)": -26.03022288345239,
        "RAAN(deg)": 159.9538294631049,
        "Satellite Name": "Starlink Shell 1 721",
        "Satellite Number": 721,
        "Semi-Major Axis(m)": 6931778.249405717,
        "Time(s)": 890
    },
    {
        "Altitude(m)": 558956.6293772156,
        "Argument of Periapsis(deg)": 0.03137206315601132,
        "Eccentricity": 0.0,
        "Inclination(deg)": 53.0,
        "Latitude(deg)": -20.191662617627884,
        "Longitude(deg)": 40.22519422412543,
        "Mean Anomaly(deg)": -25.403391679895645,
        "RAAN(deg)": 159.95331069302745,
        "Satellite Name": "Starlink Shell 1 721",
        "Satellite Number": 721,
        "Semi-Major Axis(m)": 6931778.249405717,
        "Time(s)": 900
    },
    {
        "Altitude(m)": 558799.3291539296,
        "Argument of Periapsis(deg)": 0.03172064163552255,
        "Eccentricity": 0.0,
        "Inclination(deg)": 53.0,
        "Latitude(deg)": -19.70780294106379,
        "Longitude(deg)": 40.609379031918024,
        "Mean Anomaly(deg)": -24.776560476338947,
        "RAAN(deg)": 159.95279192294998,
        "Satellite Name": "Starlink Shell 1 721",
        "Satellite Number": 721,
        "Semi-Major Axis(m)": 6931778.249405717,
        "Time(s)": 910
    },
    {
        "Altitude(m)": 558643.5268866129,
        "Argument of Periapsis(deg)": 0.0320692201150338,
        "Eccentricity": 0.0,
        "Inclination(deg)": 53.0,
        "Latitude(deg)": -19.22289989310695,
        "Longitude(deg)": 40.9910246451588,
        "Mean Anomaly(deg)": -24.149729272782203,
        "RAAN(deg)": 159.9522731528725,
        "Satellite Name": "Starlink Shell 1 721",
        "Satellite Number": 721,
        "Semi-Major Axis(m)": 6931778.249405717,
        "Time(s)": 920
    },
    {
        "Altitude(m)": 558489.2761973175,
        "Argument of Periapsis(deg)": 0.032417798594545036,
        "Eccentricity": 0.0,
        "Inclination(deg)": 53.0,
        "Latitude(deg)": -18.736986243522825,
        "Longitude(deg)": 41.37020858831232,
        "Mean Anomaly(deg)": -23.522898069225555,
        "RAAN(deg)": 159.95175438279503,
        "Satellite Name": "Starlink Shell 1 721",
        "Satellite Number": 721,
        "Semi-Major Axis(m)": 6931778.249405717,
        "Time(s)": 930
    },
    {
        "Altitude(m)": 558336.6298675362,
        "Argument of Periapsis(deg)": 0.03276637707405627,
        "Eccentricity": 0.0,
        "Inclination(deg)": 53.0,
        "Latitude(deg)": -18.25009420597317,
        "Longitude(deg)": 41.74700688429638,
        "Mean Anomaly(deg)": -22.896066865668782,
        "RAAN(deg)": 159.95123561271754,
        "Satellite Name": "Starlink Shell 1 721",
        "Satellite Number": 721,
        "Semi-Major Axis(m)": 6931778.249405717,
        "Time(s)": 940
    }
]